{
	"type": "FeatureCollection",
	"features": [
		{
			"type": "Feature",
			"properties": {
				"name": "Michoacán",
				"acronym": "",
				"id": "hub_michoacan",
				"category": "hub",
				"website": "",
				"basicInfo": "<b>Michoacán</b> is a Mexican state with various institutions working on environmental history. <a href='https://www.ciga.unam.mx/' target='_blank' rel='noopener noreferrer'>The Center for Research in Environmental Geography</a> (CIGA) of the National Autonomous University of Mexico (UNAM) is in the state of Michoacán, in west-central Mexico. Founded in 2007, CIGA has a department of Environmental History, Power, and Territory, the first department of its kind in Mexico. The aim of the department was to generate social and humanistic research that differed from the socio-ecological models of other research centers in Michoacán, which were closer to the biological and ecological sciences. The department is currently led by Pedro Urquijo, a historian and geographer, and Karine Lefebvre, an environmental archaeologist. CIGA is jointly responsible for creating a bachelor's degree program in Geohistory, with a strong environmental focus, which is offered at the National School of Higher Studies (ENES-UNAM) on the Morelia Campus. The UNAM also has a humanities unit in Jiquilpan, Michoacán, where research is conducted on the environmental history of water: the Academic Unit for Regional Studies (UAER UNAM). The UAER collaborates with academic staff from the University of Guadalajara on historical-environmental issues. The <a href='https://www.colmich.edu.mx/' target='_blank' rel='noopener noreferrer'>Colegio de Michoacán</a>, with two campuses—in Zamora and La Piedad—conducts research on climate history, historical marine management, and agriculture and the environment, primarily through three of its centers: Human Geography, History, and Anthropology. Its current president is a prominent environmental historian, Luis Alberto Arrioja Díaz Villaruel.",
				"countries": "Mexico",
				"city": "",
				"area": "Latin America",
				"color": "#34ae80"
			},
			"geometry": {
				"coordinates": [
					-101.7068,
					19.5665
				],
				"type": "Point"
			}
		},

		{
			"type": "Feature",
			"properties": {
				"name": "Mexico City",
				"acronym": "",
				"id": "hub_mexicocity",
				"category": "hub",
				"website": "",
				"basicInfo": "<b>México City</b> is the place with the largest number of universities in the country. <a href='https://ceh.colmex.mx/' target='_blank' rel='noopener noreferrer'>El Colegio de México</a> and the <a href='https://ibero.mx/' target='_blank' rel='noopener noreferrer'>Universidad Iberoamericana</a> were among the first institutions to make explicit contributions to environmental history in the country, with scholars such as Bernardo García and Alba González Jácome. Currently, the former cultivates environmental history through the <a href='https://sha.colmex.mx/convocatoria-2023-2024/' target='_blank' rel='noopener noreferrer'>Environmental History Seminar</a>, coordinated by Sergio E. Carrera. At UAM-Iztapalapa, Alejandro Tortolero, has trained dozens of generations of environmental historians. The <a href='https://cdmx.ciesas.edu.mx/' target='_blank' rel='noopener noreferrer'>Centro de Investigaciones y Estudios Superiores en Antropología Social</a> also boasts extensive experience in the discipline through the influence of Ángel Palerm, especially via Teresa Rojas, Virginia García Acosta and Antonio Escobar Ohmstede. More recently, the <a href='https://www.cide.edu/programa-docente-dha/' target='_blank' rel='noopener noreferrer'>Centro de Investigación y Docencia Económicas</a> has promoted environmental history through Michael K. Bess. At the <a href='https://www.inah.gob.mx/' target='_blank' rel='noopener noreferrer'>Instituto Nacional de Antropología e Historia</a>, stands out the Permanent Seminar on the Anthropology of Mountains and Climate, coordinated by Margarita Loera and Mauricio R. Hernández. At the Universidad Nacional Autónoma de México (UNAM), in the Facultad de filosofía y letras, teaching in Environmental history started in 1990 with Ignacio Sosa and Juan Humberto Urquiza. In our days there are several institutions that lead research in environmental history at UNAM, such as the <a href='https://historicas.unam.mx/' target='_blank' rel='noopener noreferrer'>Instituto de Investigaciones Históricas</a>, where Sergio Miranda stands out, <a href='http://www.cialc.unam.mx/' target='_blank' rel='noopener noreferrer'>Centro de Investigaciones sobre América Latina y el Caribe</a>, where Diana Alejandra Méndez Rojas contributes, <a href='https://www.filos.unam.mx/' target='_blank' rel='noopener noreferrer'>Facultad de Filosofía y Letras</a>, <a href='https://arquitectura.unam.mx/' target='_blank' rel='noopener noreferrer'>Facultad de Arquitectura</a>, , and the <a href='https://www.encit.unam.mx/' target='_blank' rel='noopener noreferrer'>Escuela Nacional de Ciencias de la Tierra</a>, where Jahzeel Aguilera Lara conducts research at the intersection of environmental history and cultural geography; also, the <a href='https://cideca.geografia.unam.mx/seminario.html' target='_blank' rel='noopener noreferrer'>Seminario de Estudios Críticos Animales</a> and the <a href='https://www.pincc.unam.mx/' target='_blank' rel='noopener noreferrer'>Programa de Investigación en Cambio Climático</a>. Finally, the Instituto de Geografía, where was developed for the first time the historical climatology by a small group guided by Gustavo Garza Merodio. At <a href='https://www.institutomora.edu.mx/' target='_blank' rel='noopener noreferrer'>Instituto Mora</a>, Cintia Velázquez Marroni is carrying out research in the related field of environmental history and heritage.",
				"countries": "Mexico",
				"city": "",
				"area": "Latin America",
				"color": "#34ae80"
			},
			"geometry": {
				"coordinates": [
					-99.1332,
					19.4326
				],
				"type": "Point"
			}
		},
		{
			"type": "Feature",
			"properties": {
				"name": "Baja California Sur",
				"acronym": "",
				"id": "hub_bajacalifornia",
				"category": "hub",
				"website": "",
				"basicInfo": "<b>Baja California Sur</b> is a pioneering state in environmental history research, thanks to the work of Micheline Cariño Olvera at the Universidad Autónoma de Baja California Sur since 1995. She proposed a five-strategy model for studying the relationships between the societies that have inhabited the Baja California peninsula and their marine, coastal, and desert environments. She has trained dozens of generations of environmental historians and is currently responsible for the <a href='https://www.facebook.com/colabbcs/about/' target='_blank' rel='noopener noreferrer'>Social Sciences Collaboratory for Sustainability</a> (Colab) at UABCS. Thus, there is a group of environmental historians working at the <a href='https://www.uabcs.mx/loreto' target='_blank' rel='noopener noreferrer'>UABCS Loreto campus</a>, such as Wendy L. Domínguez; in Todos Santos, Diego Ramírez Meza, who heads the civil society organization (CSO) <a href='https://www.protecttodossantos.org/' target='_blank' rel='noopener noreferrer'>Proteger Todos Santos</a>; Carlos Ibarra Meza, who contributes to the independent press outlet El Organismo; Azucena Higuera Higuera, a member of the CSO Saberes de rancho; Graciela Tiburcio Pintos, who directs the San José del Cabo–based CSO Organización para la sustentabilidad y la conservación del medio ambiente; and Diana Renée Amao, Ana Luisa Castillo, and Ivett Peña, who actively participate in the Colab.",
				"countries": "Mexico",
				"city": "",
				"area": "Latin America",
				"color": "#34ae80"
			},
			"geometry": {
				"coordinates": [
					-111.77489003946273,
					26.01947040893192
				],
				"type": "Point"
			}
		},
		{
			"type": "Feature",
			"properties": {
				"name": "San Luis Potosí",
				"acronym": "",
				"id": "hub_sanluis",
				"category": "hub",
				"website": "",
				"basicInfo": "<b>San Luis Potosí</b> is the founding city of the Mexican Society of Environmental History. The city has two institutions dedicated to environmental history since the 1990s: the <a href='https://sociales.uaslp.mx/#gsc.tab=0' target='_blank' rel='noopener noreferrer'>Universidad Autónoma de San Luis Potosí</a> (UASLP) and <a href='https://www.colsan.edu.mx/' target='_blank' rel='noopener noreferrer'>El Colegio de San Luis A. C</a>. (COLSAN). Environmental history at UASLP was promoted by Miguel Aguilar Robledo, a student of Karl Butzer. Historians, geographers, and anthropologists participate in its development, and its contribution to environmental history is particularly noteworthy in the training of environmental scientists. The influence of Ángel Palerm is fundamental at COLSAN, where environmental history is developed within the Water and Society Program and the History Program. Juan Carlos Ruiz Guadalajara played a leading role in the development of environmental history at COLSAN, and currently prominent figures include Sergio Cañedo Gamboa and Cleotilde Hernández Suárez. Since 2023, even without forming environmental scientists, the <a href='https://www.ipicyt.edu.mx/ciencias-ambientales' target='_blank' rel='noopener noreferrer'>Environmental Sciences Division</a> of the Instituto Potosino de Investigación Científica y Tecnológica, A. C., has played a prominent role in connecting environmental historians from UASLP and COLSAN.",
				"countries": "Mexico",
				"city": "",
				"area": "Latin America",
				"color": "#34ae80"
			},
			"geometry": {
				"coordinates": [
					-100.9733,
					22.1521
				],
				"type": "Point"
			}
		},
		{
			"type": "Feature",
			"properties": {
				"name": "IANIGLA: Argentinian Institute for Snow Science, Glaciology and Environmental Sciences",
				"acronym": "IANIGLA",
				"id": "iani",
				"category": "institution",
				"website": "ianigla.conicet.gov.ar/historia-ambiental/",
				"basicInfo": "",
				"countries": "Argentina",
				"city": "National University of Cuyo, Mendoza",
				"area": "South America",
				"color": "#34ae80"
			},
			"geometry": {
				"coordinates": [
					-68.8801735,
					-32.8795365		
				],
				"type": "Point"
			}
		},
		{
			"type": "Feature",
			"properties": {
				"name": "LABIMHA: Laboratory for Immigration, Migration and Environmental History",
				"acronym": "LABIMHA",
				"id": "labi",
				"category": "institution",
				"website": "labimha.ufsc.br/",
				"basicInfo": "",
				"countries": "Brazil",
				"city": "Federal University of Santa Catarina, Florianópolis",
				"area": "South America",
				"color": "#34ae80"
			},
			"geometry": {
				"coordinates": [
					-48.5224425,
					-27.6034133		
				],
				"type": "Point"
			}
		},
		{
			"type": "Feature",
			"properties": {
				"name": "Fronteiras: Laboratory of Environmental History at UFFS",
				"acronym": "Front",
				"id": "front",
				"category": "institution",
				"website": "fronteiras.eco.br/",
				"basicInfo": "",
				"countries": "Brazil",
				"city": "Federal University of Fronteira Sul, Cerro Largo",
				"area": "South America",
				"color": "#34ae80"
			},
			"geometry": {
				"coordinates": [
					-54.7564028,
					-28.1410583				
				],
				"type": "Point"
			}
		},
		{
			"type": "Feature",
			"properties": {
				"name": "CHAT: Center for Environmental History, Culture and Technology",
				"acronym": "CHAT",
				"id": "chat",
				"category": "institution",
				"website": "www3.unicentro.br/chat/",
				"basicInfo": "",
				"countries": "Brazil",
				"city": "Unicentro, Guarapuava",
				"area": "South America",
				"color": "#34ae80"
			},
			"geometry": {
				"coordinates": [
					-51.4657398,
					-25.4097815					
				],
				"type": "Point"
			}
		},
		{
			"type": "Feature",
			"properties": {
				"name": "Society for the History of Science Kolkata",
				"acronym": "SHSK",
				"id": "shsk",
				"category": "institution",
				"website": "societyforthehistoryofscience.com",
				"basicInfo": "",
				"countries": "India",
				"city": "Kolkata",
				"area": "Asia",
				"color": "#f1680f"
			},
			"geometry": {
				"coordinates": [
					88.380498,
					22.626966					
				],
				"type": "Point"
			}
		},
		{
			"type": "Feature",
			"properties": {
				"name": "Shanxi University Institute for Environmental Humanities and Disaster Governance",
				"acronym": "IEHDG",
				"id": "iehdg",
				"category": "institution",
				"website": "siee.sxu.edu.cn/en/",
				"basicInfo": "<b>The Institute for Environmental Humanities and Disaster Governance<b> was founded at Shanxi University in May 2024. Recognized by the Ministry of Emergency Management and the China Association for Disaster Prevention, and jointly established by the Shanxi Provincial Department of Emergency Management and the university, it is a comprehensive interdisciplinary platform for research on disaster governance and ecological civilization. It draws on the university's strengths in history, geography, ecology, environmental engineering, philosophy of science and technology, political science, and biomathematics. Its work reaches from the deep past into the present and covers disaster prevention and mitigation, post disaster reconstruction, ecological restoration, crisis response, and the building of disaster databases, with the aim of bringing research, teaching, and public service together in a problem driven school that also functions as a new style think tank.<br><br>The Institute takes history and the other humanistic social sciences as its foundation, approaching disaster through the relationship between people and nature and treating technological and humanistic approaches to mitigation as equally necessary. Its research fields include humanistic disaster reduction in China, the history of Chinese thought on disaster mitigation, the history of population, resources, and environment, the sociology of disaster, risk analysis and emergency management, climate change and social response, and the compilation of a Chinese disaster index. A publishing program is under way, including a series of comprehensive disaster histories and the journals Disaster and History and Studies in Ecological History. Alongside this, the Institute is gathering documentary material from the pre Qin period to the present for a general database of Chinese historical disaster sources, together with focused databases on major events, particular regions, and specific disaster types, and it plans to apply for major national research grants in both the social and natural sciences.<br><br>Exchange and public service are the Institute's other two commitments. It is assembling an international academic committee and organizes two or three major conferences each year, working with the Rachel Carson Center for Environment and Society in Munich, the Environmental Humanities Laboratory at KTH Stockholm, the Australian National University, University College London, and disaster research centers at several American universities, along with Chinese partners such as the Center for Ecological History at Renmin University and the Academy of Disaster Reduction and Emergency Management at Beijing Normal University. It also offers expertise and policy advice to government and society across the full arc of disaster response, and is working with partner organizations to establish a museum of disaster reduction and a laboratory for simulating historical disasters. In teaching, the Institute runs undergraduate honors tracks in environmental humanities and disaster governance, trains master's and doctoral students in disaster history, ecological history, and humanistic disaster reduction, is preparing a series of textbooks, and continues its advanced seminar on disaster and history.<br><br>The Institute has seventeen full time members from within the university, fourteen affiliated scholars, and two scholars recruited on full appointments, drawn from history, ecology, environmental engineering, philosophy of science and technology, political science, biomathematics, and economics. Affiliated scholars from elsewhere in China include Xia Mingfang, Fang Xiuqi, An Jiesheng, Wang Zijin, Wang Jiange, and Wang Shangyi, and those based abroad include Donald Worster, Kathryn Edgerton-Tarpley, and Ling Zhang in the United States, Christof Mauch, Helmuth Trischler, and Sonja Dümpelmann in Germany, Henrietta Harrison in the United Kingdom, and Fukao Yoko in Japan. Professor Xia Mingfang serves as director and chair of the academic advisory committee, with Professor Xing Long as honorary chair, Professor Ling Zhang as academic dean, Professor Zhou Ya as executive director, and Professor Han Xiang as deputy director.",
				"countries": "China",
				"city": "Shanxi University, Taiyuan",
				"area": "Asia",
				"color": "#f1680f"
			},
			"geometry": {
				"coordinates": [
					37.8699921,
					112.5437075					
				],
				"type": "Point"
			}
		},
		{
			"type": "Feature",
			"properties": {
				"name": "Center for Science and Civilization of SUSTech",
				"acronym": "SUSTech",
				"id": "sustech",
				"category": "institution",
				"website": "rw.sustech.edu.cn/a/En/E&R/Scientific_research_work/2020/0907/488.html",
				"basicInfo": "",
				"countries": "China",
				"city": "Southern University of Science and Technology, Shenzhen",
				"area": "Asia",
				"color": "#f1680f"
			},
			"geometry": {
				"coordinates": [
					113.998603,
					22.598606					
				],
				"type": "Point"
			}
		},
		{
			"type": "Feature",
			"properties": {
				"name": "Ashoka Trust for Research in Ecology and the Environment (ATREE)",
				"acronym": "ATREE",
				"id": "atree",
				"category": "institution",
				"website": "atree.org/",
				"basicInfo": "",
				"countries": "India",
				"city": "Bangalore",
				"area": "Asia",
				"color": "#f1680f"
			},
			"geometry": {
				"coordinates": [
					77.620279,
					13.064328					
				],
				"type": "Point"
			}
		},
		{
			"type": "Feature",
			"properties": {
				"name": "Center for Ecological History",
				"acronym": "CEH",
				"id": "ceh_renmin",
				"category": "institution",
				"website": "iqh.ruc.edu.cn/old/zgrmdxstsyjzx/",
				"basicInfo": "",
				"countries": "China",
				"city": "Renmin University",
				"area": "Asia",
				"color": "#f1680f"
			},
			"geometry": {
				"coordinates": [
					116.315729,
					39.965744					
				],
				"type": "Point"
			}
		},
		{
			"type": "Feature",
			"properties": {
				"name": "Trinity Centre for Environmental Humanities",
				"acronym": "TCEH",
				"id": "tceh",
				"category": "institution",
				"website": "www.tcd.ie/tceh/",
				"basicInfo": "",
				"countries": "Ireland",
				"city": "Trinity College Dublin",
				"area": "Europe",
				"color": "#6F07E8"
			},
			"geometry": {
				"coordinates": [
					-6.254385,
					53.343843					
				],
				"type": "Point"
			}
		},
		{
			"type": "Feature",
			"properties": {
				"name": "Centre for Anthropocene History",
				"acronym": "CAH",
				"id": "cah_swe",
				"category": "institution",
				"website": "www.kth.se/anthropocenehistory",
				"basicInfo": "",
				"countries": "Sweden",
				"city": "KTH Royal Institute of Technology, Stockholm",
				"area": "Europe",
				"color": "#6F07E8"
			},
			"geometry": {
				"coordinates": [
					18.070632,
					59.349867					
				],
				"type": "Point"
			}
		},
		{
			"type": "Feature",
			"properties": {
				"name": "Forest History Society",
				"acronym": "FHS",
				"id": "fhs",
				"category": "institution",
				"website": "foresthistory.org",
				"basicInfo": "",
				"countries": "USA",
				"city": "Durham",
				"area": "North America",
				"color": "#FF000C"
			},
			"geometry": {
				"coordinates": [
					-78.88320794760281,
					35.99431734296458
				],
				"type": "Point"
			}
		},
		{
			"type": "Feature",
			"properties": {
				"name": "Nelson Institute’s Center for Culture, History and Environment",
				"acronym": "CHE",
				"id": "che",
				"category": "institution",
				"website": "che.nelson.wisc.edu",
				"basicInfo": "",
				"countries": "USA",
				"city": "University of Wisconsin, Madison",
				"area": "North America",
				"color": "#FF000C"
			},
			"geometry": {
				"coordinates": [
					-89.40904344784276,
					43.06965028227265
				],
				"type": "Point"
			}
		},
		{
			"type": "Feature",
			"properties": {
				"name": "Centre for Environmental Humanities",
				"acronym": "",
				"id": "ceh_uk",
				"category": "institution",
				"website": "environmentalhumanities.blogs.bristol.ac.uk/",
				"basicInfo": "",
				"countries": "UK",
				"city": "University of Bristol, Bristol",
				"area": "Europe",
				"color": "#6F07E8"
			},
			"geometry": {
				"coordinates": [
					-2.6022621215663833,
					51.45804320523308
				],
				"type": "Point"
			}
		},
		{
			"type": "Feature",
			"properties": {
				"name": "Estonian Center for Environmental History",
				"acronym": "KAJAK",
				"id": "kajak",
				"category": "institution",
				"website": "www.carsoncenter.uni-muenchen.de/outreach/collaborations/kajak1/index.html",
				"basicInfo": "",
				"countries": "Estonia",
				"city": "Tallinn University, Tallin",
				"area": "Europe",
				"color": "#6F07E8"
			},
			"geometry": {
				"coordinates": [
					24.771154620258073,
					59.43866222568991
				],
				"type": "Point"
			}
		},
		{
			"type": "Feature",
			"properties": {
				"name": "KTH Environmental Humanities Laboratory",
				"acronym": "",
				"id": "kth",
				"category": "institution",
				"website": "www.kth.se/ehl/kth-environmental-humanities-laboratory-1.1225452",
				"basicInfo": "",
				"countries": "Sweden",
				"city": "Stockholm",
				"area": "Europe",
				"color": "#6F07E8"
			},
			"geometry": {
				"coordinates": [
					18.07120169604849,
					59.3225482048729
				],
				"type": "Point"
			}
		},
		{
			"type": "Feature",
			"properties": {
				"name": "Observatorio de Humanidades Ambientales (Environmental Humanities Observatory)",
				"acronym": "",
				"id": "oha_spain",
				"category": "institution",
				"website": "observatoriohumanidadesambientales.com/equipo/",
				"basicInfo": "",
				"countries": "Spain",
				"city": "Granada",
				"area": "Europe",
				"color": "#6F07E8"
			},
			"geometry": {
				"coordinates": [
					-3.600145457199659,
					37.174246417002706
				],
				"type": "Point"
			}
		},
		{
			"type": "Feature",
			"properties": {
				"name": "Rachel Carson Center for Environment and Society",
				"acronym": "RCC",
				"id": "rcc",
				"category": "institution",
				"website": "www.carsoncenter.uni-muenchen.de/index.html",
				"basicInfo": "",
				"countries": "Germany",
				"city": "Munich",
				"area": "Europe",
				"color": "#6F07E8"
			},
			"geometry": {
				"coordinates": [
					11.575916043850299,
					48.134599738599206
				],
				"type": "Point"
			}
		},
		{
			"type": "Feature",
			"properties": {
				"name": "Radical Humanities Laboratory",
				"acronym": "",
				"id": "rhl_ireland",
				"category": "institution",
				"website": "www.ucc.ie/en/future-humanities/radical/",
				"basicInfo": "",
				"countries": "Ireland",
				"city": "University of Cork, Cork",
				"area": "Europe",
				"color": "#6F07E8"
			},
			"geometry": {
				"coordinates": [
					-8.49208053928524,
					51.89347685009875
				],
				"type": "Point"
			}
		},
		{
			"type": "Feature",
			"properties": {
				"name": "Center for Environmental History",
				"acronym": "ZUG",
				"id": "zug",
				"category": "institution",
				"website": "boku.ac.at/en/zentrum-fuer-umweltgeschichte",
				"basicInfo": "",
				"countries": "Austria",
				"city": "BOKU University, Vienna",
				"area": "Europe",
				"color": "#6F07E8"
			},
			"geometry": {
				"coordinates": [
					16.33580243510943,
					48.23535734752687
				],
				"type": "Point"
			}
		},
		{
			"type": "Feature",
			"properties": {
				"name": "Center for Environmental History",
				"acronym": "",
				"id": "ceh_australia",
				"category": "institution",
				"website": "history.cass.anu.edu.au/centres/ceh",
				"basicInfo": "",
				"countries": "Australia",
				"city": "Australian National University, Canberra",
				"area": "Oceania",
				"color": "#1970ff"
			},
			"geometry": {
				"coordinates": [
					149.11790793697753,
					-35.281155658259614
				],
				"type": "Point"
			}
		},
		{
			"type": "Feature",
			"properties": {
				"name": "The Research Center for Chinese Ecological and Environmental History",
				"acronym": "",
				"id": "rc_china",
				"category": "institution",
				"website": "github.com/ICEHO/eh-viz/raw/refs/heads/main/resources/docs/eh_organizations_centerPublicHistory_Beijing.docx",
				"basicInfo": "",
				"countries": "China",
				"city": "Nankai University, Tianjin",
				"area": "Asia",
				"color": "#f1680f"
			},
			"geometry": {
				"coordinates": [
					117.174256,
					39.103736
				],
				"type": "Point"
			}
		},
		{
			"type": "Feature",
			"properties": {
				"name": "Center for Public History and Environmental Studies",
				"acronym": "",
				"id": "cph_china",
				"category": "institution",
				"website": "github.com/ICEHO/eh-viz/raw/refs/heads/main/resources/docs/eh_organizations_researchCenter_Tianjin.docx",
				"basicInfo": "",
				"countries": "China",
				"city": "Tsinghua University, Beijing",
				"area": "Asia",
				"color": "#f1680f"
			},
			"geometry": {
				"coordinates": [
					116.326959,
					39.998870
				],
				"type": "Point"
			}
		},
		{
			"type": "Feature",
			"properties": {
				"name": "Center for Environmental History ",
				"acronym": "",
				"id": "ceh_china",
				"category": "institution",
				"website": "cnwec.muc.edu.cn",
				"basicInfo": "",
				"countries": "China",
				"city": "Minzu University, Beijing",
				"area": "Asia",
				"color": "#f1680f"
			},
			"geometry": {
				"coordinates": [
					116.31982,
					39.950631
				],
				"type": "Point"
			}
		},
		{
			"type": "Feature",
			"properties": {
				"name": "Center for Global Environmental History",
				"acronym": "",
				"id": "cgeh_china",
				"category": "institution",
				"website": "github.com/ICEHO/eh-viz/raw/refs/heads/main/resources/docs/eh_organizations_centerWorldEnvironmentalHistory_Beijing.docx",
				"basicInfo": "",
				"countries": "China",
				"city": "Peking University, Beijing",
				"area": "Asia",
				"color": "#f1680f"
			},
			"geometry": {
				"coordinates": [
					116.305810,
					39.986559
				],
				"type": "Point"
			}
		},
		{
			"type": "Feature",
			"properties": {
				"name": "The African Anthropocenes Research Centre",
				"acronym": "",
				"id": "african_rc",
				"category": "institution",
				"website": "github.com/ICEHO/eh-viz/raw/refs/heads/main/resources/docs/eh_organizations_africanAnthropocenesResearchCentre.docx",
				"basicInfo": "",
				"countries": "South Africa",
				"city": "History Department, Stellenbosch University, Stellenbosch",
				"area": "Africa",
				"color": "#45b0ff"
			},
			"geometry": {
				"coordinates": [
					19.994318,
					-32.933182
				],
				"type": "Point"
			}
		},
		{
			"type": "Feature",
			"properties": {
				"name": "Bogotá",
				"acronym": "",
				"id": "hub_bogota",
				"category": "hub",
				"website": "",
				"basicInfo": "<b>Bogotá</b> has environmental historians working in three of its most important universities. Stefania Gallini created a strong group in the National University, which since she left (for Italy) is led by geographer and historian <a href='https://unal.academia.edu/VladimirSanchezCalderon' target='_blank' rel='noopener noreferrer'>Vladimir Sánchez Calderón</a>, who works in the Department of Geography. Claudia Leal and Shawn Van Ausdal work at the <a href='https://cienciassociales.uniandes.edu.co/historia-geografia/profesores/' target='_blank' rel='noopener noreferrer'>Department of History and Geography</a> at Universidad de los Andes, and <a href='https://perfilesycapacidades.javeriana.edu.co/es/persons/morakatherinne' target='_blank' rel='noopener noreferrer'>Katherine Mora Pacheco</a> in Universidad Javeriana. They work in topics spanning cities, climate, cattle ranching, conservation and animals.",
				"countries": "Colombia",
				"city": "",
				"area": "Latin America",
				"color": "#34ae80"
			},
			"geometry": {
				"coordinates": [
					-74.065427,
					4.602748
				],
				"type": "Point"
			}
		},
		{
			"type": "Feature",
			"properties": {
				"name": "Río de Janeiro",
				"acronym": "",
				"id": "hub_rio",
				"category": "hub",
				"website": "",
				"basicInfo": "<b>Rio de Janeiro</b> is not only one of the most important and fascinating cities of Brazil, but the center of a prolific group of environmental historians, in the country with the largest community devoted to this field in Latin America. They are housed in three major universities and work from different disciplinary perspectives. José Augusto Pádua and Lise Sedrez are part of the in the <a href='https://historia.ufrj.br/index.php/o-instituto/docentes/professores-permanentes-do-ih-ufrj' target='_blank' rel='noopener noreferrer'>Historical Institute of Universidad Federal do Rio</a>; Rogério Ribeiro de Oliveira and Alexandro Solórzano work in the <a href='http://www.geo.puc-rio.br/corpo-docente/' target='_blank' rel='noopener noreferrer'>Department of Geography and Environment of the Pontifícia Universidade Católica do Rio</a>; and Dominichi Miranda de Sá and Magali Romero Sá in the <a href='https://coc.fiocruz.br/todas-as-noticias/researchers/' target='_blank' rel='noopener noreferrer'>Fundação Oswaldo Cruz</a>, which focuses on studies of science and technology. These researchers from a strong network, so that anyone interested in environmental history in Latin America should consider Rio as a place of interest.",
				"countries": "Brasil",
				"city": "",
				"area": "Latin America",
				"color": "#34ae80"
			},
			"geometry": {
				"coordinates": [
					-43.1729,
					-22.9068
				],
				"type": "Point"
			}
		},
		{
			"type": "Feature",
			"properties": {
				"name": "Centre for World Environmental History",
				"acronym": "",
				"id": "cweh",
				"category": "institution",
				"website": "www.sussex.ac.uk/cweh/index",
				"basicInfo": "",
				"countries": "UK",
				"city": "University of Sussex, Falmer",
				"area": "Europe",
				"color": "#6F07E8"
			},
			"geometry": {
				"coordinates": [
					-0.087677,
					50.867986
				],
				"type": "Point"
			}
		},
		{
			"type": "Feature",
			"properties": {
				"name": "The Greenhouse",
				"acronym": "",
				"id": "greenhouse",
				"category": "institution",
				"website": "www.uis.no/en/greenhouse",
				"basicInfo": "",
				"countries": "Norway",
				"city": "University of Stavanger, Stavanger",
				"area": "Europe",
				"color": "#6F07E8"
			},
			"geometry": {
				"coordinates": [
					5.696068,
					58.936797
				],
				"type": "Point"
			}
		}
	]
}
